FLOCK 4H-16             
1 66719U 25276BF  26195.74151821  .00003880  00000+0  18254-3 0  9994
2 66719  97.4230 268.8866 0002764 258.0974 101.9952 15.20146837 34601
FLOCK 4H-18             
1 66721U 25276BH  26195.74766992  .00004039  00000+0  19022-3 0  9999
2 66721  97.4174 268.7067 0002220 295.6899  64.4107 15.20088241 34602
FLOCK 4H-19             
1 66722U 25276BJ  26195.74728974  .00003422  00000+0  15615-3 0  9997
2 66722  97.4174 269.1682 0002350 149.7724 210.3647 15.21282348 33921
FLOCK 4H-20             
1 66723U 25276BK  26195.74948318  .00003985  00000+0  18049-3 0  9992
2 66723  97.4211 269.2757 0002803 171.1779 188.9506 15.21442290 33883
FLOCK 4H-21             
1 66724U 25276BL  26195.78071765  .00003236  00000+0  14896-3 0  9995
2 66724  97.4179 269.1311 0002593 170.0843 190.0444 15.21027457 33887
FLOCK 4H-22             
1 66725U 25276BM  26195.75933072  .00004288  00000+0  19925-3 0  9997
2 66725  97.4168 268.8210 0001045 300.5572  59.5560 15.20519240 34615
FLOCK 4H-23             
1 66726U 25276BN  26195.74700043  .00003987  00000+0  18790-3 0  9991
2 66726  97.4237 268.8935 0002987 246.1074 113.9848 15.20066978 34603
FLOCK 4H-24             
1 66727U 25276BP  26195.79764273  .00003820  00000+0  17963-3 0  9999
2 66727  97.4232 268.9723 0002376 269.4806  90.6157 15.20177399 34613
FLOCK 4H-25             
1 66728U 25276BQ  26195.73338205  .00003737  00000+0  17193-3 0  9998
2 66728  97.4188 269.0760 0001828 127.5054 232.6348 15.20942265 33900
FLOCK 4H-26             
1 66729U 25276BR  26195.89684049  .00003887  00000+0  18417-3 0  9992
2 66729  97.4187 268.8521 0003190 267.6106  92.4764 15.19900360 34622
FLOCK 4H-27             
1 66730U 25276BS  26195.76394461  .00003706  00000+0  17142-3 0  9990
2 66730  97.4165 268.9595 0001553 127.4667 232.6710 15.20765702 34628
FLOCK 4H-29             
1 66732U 25276BU  26195.74473834  .00004147  00000+0  19547-3 0  9993
2 66732  97.4166 268.6849 0001675 288.0202  72.0851 15.20040285 34606
FLOCK 4H-30             
1 66733U 25276BV  26195.73667613  .00003808  00000+0  17912-3 0  9990
2 66733  97.4227 268.8840 0002631 268.1762  91.9171 15.20162656 34603
FLOCK 4H-31             
1 66734U 25276BW  26195.75758586  .00003864  00000+0  18291-3 0  9996
2 66734  97.4165 268.6647 0002167 279.5583  80.5407 15.19938727 34603
FLOCK 4H-32             
1 66735U 25276BX  26195.74552847  .00003863  00000+0  18221-3 0  9990
2 66735  97.4219 268.8488 0003025 264.5669  95.5221 15.20057997 34605
FLOCK 4H-33             
1 66736U 25276BY  26195.76981597  .00003569  00000+0  16320-3 0  9992
2 66736  97.4216 269.2651 0002642 163.4271 196.7052 15.21186104 34633
