{"fetched_at":"2026-07-15T06:35:37.596Z","source":"https://celestrak.org/NORAD/elements/gp.php?GROUP=planet&FORMAT=JSON","constellation":"superdove","records":[{"OBJECT_NAME":"FLOCK 4H-16","OBJECT_ID":"2025-276BF","EPOCH":"2026-07-14T17:47:47.173344","CLASSIFICATION_TYPE":"U","MEAN_MOTION":15.20146837,"ECCENTRICITY":0.00027641,"INCLINATION":97.423,"RA_OF_ASC_NODE":268.8866,"ARG_OF_PERICENTER":258.0974,"MEAN_ANOMALY":101.9952,"EPHEMERIS_TYPE":0,"NORAD_CAT_ID":66719,"ELEMENT_SET_NO":999,"REV_AT_EPOCH":3460,"BSTAR":0.00018254258,"MEAN_MOTION_DOT":0.0000388,"MEAN_MOTION_DDOT":0},{"OBJECT_NAME":"FLOCK 4H-18","OBJECT_ID":"2025-276BH","EPOCH":"2026-07-14T17:56:38.681088","CLASSIFICATION_TYPE":"U","MEAN_MOTION":15.20088241,"ECCENTRICITY":0.00022209,"INCLINATION":97.4174,"RA_OF_ASC_NODE":268.7067,"ARG_OF_PERICENTER":295.6899,"MEAN_ANOMALY":64.4107,"EPHEMERIS_TYPE":0,"NORAD_CAT_ID":66721,"ELEMENT_SET_NO":999,"REV_AT_EPOCH":3460,"BSTAR":0.00019021657,"MEAN_MOTION_DOT":0.00004039,"MEAN_MOTION_DDOT":0},{"OBJECT_NAME":"FLOCK 4H-19","OBJECT_ID":"2025-276BJ","EPOCH":"2026-07-14T17:56:05.833536","CLASSIFICATION_TYPE":"U","MEAN_MOTION":15.21282348,"ECCENTRICITY":0.00023505,"INCLINATION":97.4174,"RA_OF_ASC_NODE":269.1682,"ARG_OF_PERICENTER":149.7724,"MEAN_ANOMALY":210.3647,"EPHEMERIS_TYPE":0,"NORAD_CAT_ID":66722,"ELEMENT_SET_NO":999,"REV_AT_EPOCH":3392,"BSTAR":0.00015614975,"MEAN_MOTION_DOT":0.00003422,"MEAN_MOTION_DDOT":0},{"OBJECT_NAME":"FLOCK 4H-20","OBJECT_ID":"2025-276BK","EPOCH":"2026-07-14T17:59:15.346752","CLASSIFICATION_TYPE":"U","MEAN_MOTION":15.2144229,"ECCENTRICITY":0.00028033,"INCLINATION":97.4211,"RA_OF_ASC_NODE":269.2757,"ARG_OF_PERICENTER":171.1779,"MEAN_ANOMALY":188.9506,"EPHEMERIS_TYPE":0,"NORAD_CAT_ID":66723,"ELEMENT_SET_NO":999,"REV_AT_EPOCH":3388,"BSTAR":0.00018049057,"MEAN_MOTION_DOT":0.00003985,"MEAN_MOTION_DDOT":0},{"OBJECT_NAME":"FLOCK 4H-21","OBJECT_ID":"2025-276BL","EPOCH":"2026-07-14T18:44:14.004960","CLASSIFICATION_TYPE":"U","MEAN_MOTION":15.21027457,"ECCENTRICITY":0.00025937,"INCLINATION":97.4179,"RA_OF_ASC_NODE":269.1311,"ARG_OF_PERICENTER":170.0843,"MEAN_ANOMALY":190.0444,"EPHEMERIS_TYPE":0,"NORAD_CAT_ID":66724,"ELEMENT_SET_NO":999,"REV_AT_EPOCH":3388,"BSTAR":0.0001489565,"MEAN_MOTION_DOT":0.00003236,"MEAN_MOTION_DDOT":0},{"OBJECT_NAME":"FLOCK 4H-22","OBJECT_ID":"2025-276BM","EPOCH":"2026-07-14T18:13:26.174208","CLASSIFICATION_TYPE":"U","MEAN_MOTION":15.2051924,"ECCENTRICITY":0.00010459,"INCLINATION":97.4168,"RA_OF_ASC_NODE":268.821,"ARG_OF_PERICENTER":300.5572,"MEAN_ANOMALY":59.556,"EPHEMERIS_TYPE":0,"NORAD_CAT_ID":66725,"ELEMENT_SET_NO":999,"REV_AT_EPOCH":3461,"BSTAR":0.00019924786,"MEAN_MOTION_DOT":0.00004288,"MEAN_MOTION_DDOT":0},{"OBJECT_NAME":"FLOCK 4H-23","OBJECT_ID":"2025-276BN","EPOCH":"2026-07-14T17:55:40.837152","CLASSIFICATION_TYPE":"U","MEAN_MOTION":15.20066978,"ECCENTRICITY":0.00029875,"INCLINATION":97.4237,"RA_OF_ASC_NODE":268.8935,"ARG_OF_PERICENTER":246.1074,"MEAN_ANOMALY":113.9848,"EPHEMERIS_TYPE":0,"NORAD_CAT_ID":66726,"ELEMENT_SET_NO":999,"REV_AT_EPOCH":3460,"BSTAR":0.0001878961,"MEAN_MOTION_DOT":0.00003987,"MEAN_MOTION_DDOT":0},{"OBJECT_NAME":"FLOCK 4H-24","OBJECT_ID":"2025-276BP","EPOCH":"2026-07-14T19:08:36.331872","CLASSIFICATION_TYPE":"U","MEAN_MOTION":15.20177399,"ECCENTRICITY":0.00023762,"INCLINATION":97.4232,"RA_OF_ASC_NODE":268.9723,"ARG_OF_PERICENTER":269.4806,"MEAN_ANOMALY":90.6157,"EPHEMERIS_TYPE":0,"NORAD_CAT_ID":66727,"ELEMENT_SET_NO":999,"REV_AT_EPOCH":3461,"BSTAR":0.0001796272,"MEAN_MOTION_DOT":0.0000382,"MEAN_MOTION_DDOT":0},{"OBJECT_NAME":"FLOCK 4H-25","OBJECT_ID":"2025-276BQ","EPOCH":"2026-07-14T17:36:04.209120","CLASSIFICATION_TYPE":"U","MEAN_MOTION":15.20942265,"ECCENTRICITY":0.00018289,"INCLINATION":97.4188,"RA_OF_ASC_NODE":269.076,"ARG_OF_PERICENTER":127.5054,"MEAN_ANOMALY":232.6348,"EPHEMERIS_TYPE":0,"NORAD_CAT_ID":66728,"ELEMENT_SET_NO":999,"REV_AT_EPOCH":3390,"BSTAR":0.00017192923,"MEAN_MOTION_DOT":0.00003737,"MEAN_MOTION_DDOT":0},{"OBJECT_NAME":"FLOCK 4H-26","OBJECT_ID":"2025-276BR","EPOCH":"2026-07-14T21:31:27.018336","CLASSIFICATION_TYPE":"U","MEAN_MOTION":15.1990036,"ECCENTRICITY":0.000319,"INCLINATION":97.4187,"RA_OF_ASC_NODE":268.8521,"ARG_OF_PERICENTER":267.6106,"MEAN_ANOMALY":92.4764,"EPHEMERIS_TYPE":0,"NORAD_CAT_ID":66729,"ELEMENT_SET_NO":999,"REV_AT_EPOCH":3462,"BSTAR":0.00018416702,"MEAN_MOTION_DOT":0.00003887,"MEAN_MOTION_DDOT":0},{"OBJECT_NAME":"FLOCK 4H-27","OBJECT_ID":"2025-276BS","EPOCH":"2026-07-14T18:20:04.814304","CLASSIFICATION_TYPE":"U","MEAN_MOTION":15.20765702,"ECCENTRICITY":0.00015532,"INCLINATION":97.4165,"RA_OF_ASC_NODE":268.9595,"ARG_OF_PERICENTER":127.4667,"MEAN_ANOMALY":232.671,"EPHEMERIS_TYPE":0,"NORAD_CAT_ID":66730,"ELEMENT_SET_NO":999,"REV_AT_EPOCH":3462,"BSTAR":0.00017141604,"MEAN_MOTION_DOT":0.00003706,"MEAN_MOTION_DDOT":0},{"OBJECT_NAME":"FLOCK 4H-29","OBJECT_ID":"2025-276BU","EPOCH":"2026-07-14T17:52:25.392576","CLASSIFICATION_TYPE":"U","MEAN_MOTION":15.20040285,"ECCENTRICITY":0.00016751,"INCLINATION":97.4166,"RA_OF_ASC_NODE":268.6849,"ARG_OF_PERICENTER":288.0202,"MEAN_ANOMALY":72.0851,"EPHEMERIS_TYPE":0,"NORAD_CAT_ID":66732,"ELEMENT_SET_NO":999,"REV_AT_EPOCH":3460,"BSTAR":0.00019546651,"MEAN_MOTION_DOT":0.00004147,"MEAN_MOTION_DDOT":0},{"OBJECT_NAME":"FLOCK 4H-30","OBJECT_ID":"2025-276BV","EPOCH":"2026-07-14T17:40:48.817632","CLASSIFICATION_TYPE":"U","MEAN_MOTION":15.20162656,"ECCENTRICITY":0.00026314,"INCLINATION":97.4227,"RA_OF_ASC_NODE":268.884,"ARG_OF_PERICENTER":268.1762,"MEAN_ANOMALY":91.9171,"EPHEMERIS_TYPE":0,"NORAD_CAT_ID":66733,"ELEMENT_SET_NO":999,"REV_AT_EPOCH":3460,"BSTAR":0.00017911781,"MEAN_MOTION_DOT":0.00003808,"MEAN_MOTION_DDOT":0},{"OBJECT_NAME":"FLOCK 4H-31","OBJECT_ID":"2025-276BW","EPOCH":"2026-07-14T18:10:55.418304","CLASSIFICATION_TYPE":"U","MEAN_MOTION":15.19938727,"ECCENTRICITY":0.00021673,"INCLINATION":97.4165,"RA_OF_ASC_NODE":268.6647,"ARG_OF_PERICENTER":279.5583,"MEAN_ANOMALY":80.5407,"EPHEMERIS_TYPE":0,"NORAD_CAT_ID":66734,"ELEMENT_SET_NO":999,"REV_AT_EPOCH":3460,"BSTAR":0.00018291094,"MEAN_MOTION_DOT":0.00003864,"MEAN_MOTION_DDOT":0},{"OBJECT_NAME":"FLOCK 4H-32","OBJECT_ID":"2025-276BX","EPOCH":"2026-07-14T17:53:33.659808","CLASSIFICATION_TYPE":"U","MEAN_MOTION":15.20057997,"ECCENTRICITY":0.00030255,"INCLINATION":97.4219,"RA_OF_ASC_NODE":268.8488,"ARG_OF_PERICENTER":264.5669,"MEAN_ANOMALY":95.5221,"EPHEMERIS_TYPE":0,"NORAD_CAT_ID":66735,"ELEMENT_SET_NO":999,"REV_AT_EPOCH":3460,"BSTAR":0.00018220644,"MEAN_MOTION_DOT":0.00003863,"MEAN_MOTION_DDOT":0},{"OBJECT_NAME":"FLOCK 4H-33","OBJECT_ID":"2025-276BY","EPOCH":"2026-07-14T18:28:32.099808","CLASSIFICATION_TYPE":"U","MEAN_MOTION":15.21186104,"ECCENTRICITY":0.00026425,"INCLINATION":97.4216,"RA_OF_ASC_NODE":269.2651,"ARG_OF_PERICENTER":163.4271,"MEAN_ANOMALY":196.7052,"EPHEMERIS_TYPE":0,"NORAD_CAT_ID":66736,"ELEMENT_SET_NO":999,"REV_AT_EPOCH":3463,"BSTAR":0.0001631972,"MEAN_MOTION_DOT":0.00003569,"MEAN_MOTION_DDOT":0}]}
